APRIZESAT 2             
1 28366U 04025A   26195.00354258  .00000096  00000+0  42894-4 0  9991
2 28366  98.1040 359.4689 0105864 168.4618 191.9034 14.38047311155494
SAUDICOMSAT 1           
1 28369U 04025D   26195.03327852  .00000151  00000+0  46044-4 0  9990
2 28369  98.5777 205.8899 0031034 302.5557  57.2643 14.55493100168039
SAUDICOMSAT 2           
1 28370U 04025E   26195.03762363  .00000096  00000+0  36911-4 0  9992
2 28370  98.6642 208.0430 0055582 177.1874 182.9642 14.49994040163998
APRIZESAT 1             
1 28372U 04025G   26195.03603821  .00000125  00000+0  42798-4 0  9990
2 28372  98.6309 206.4926 0045791  74.0961 286.5273 14.51791660165804
NANOSAT-1               
1 28493U 04049B   26194.93866272  .00000491  00000+0  71829-4 0  9992
2 28493  98.2308 332.2592 0003696 187.9282 172.1871 14.80209475159401
SAUDICOMSAT 7           
1 31119U 07012C   26194.86598161  .00000246  00000+0  53196-4 0  9990
2 31119  98.3797 169.5462 0056931 112.3640 248.3609 14.66135847 26346
SAUDICOMSAT 6           
1 31121U 07012E   26194.83975933  .00000171  00000+0  42940-4 0  9998
2 31121  98.4116 162.8552 0070485 243.3861 116.0107 14.62583885 24089
SAUDICOMSAT 5           
1 31124U 07012H   26194.87019274  .00000323  00000+0  64421-4 0  9999
2 31124  98.3509 170.2921 0048324  42.9122 317.5837 14.68191182 27510
SAUDICOMSAT 3           
1 31125U 07012J   26195.19258281  .00000380  00000+0  70434-4 0  9993
2 31125  98.3163 171.1677 0038335 328.4595  31.4313 14.70748875 28794
SAUDICOMSAT 4           
1 31127U 07012L   26194.86871580  .00000202  00000+0  46866-4 0  9996
2 31127  98.4002 167.9861 0063469 173.8692 186.3301 14.64534744 25192
APRIZESAT 4             
1 35684U 09041D   26195.16202862  .00000318  00000+0  44743-4 0  9997
2 35684  98.1404 271.0193 0042167 232.9418 126.7936 14.83912969915366
APRIZESAT 3             
1 35686U 09041F   26194.98195936  .00001002  00000+0  91336-4 0  9992
2 35686  98.2096 349.4951 0060874 339.9454  19.9374 14.96308721920387
S-NET D                 
1 43186U 18014G   26195.17979986  .00002535  00000+0  13206-3 0  9994
2 43186  97.5337  99.8031 0006301 289.4280  70.6272 15.16912564462850
S-NET B                 
1 43187U 18014H   26195.19178355  .00002583  00000+0  13455-3 0  9997
2 43187  97.5341  99.8025 0006891 283.0529  76.9934 15.16882444462856
S-NET A                 
1 43188U 18014J   26195.17852839  .00002530  00000+0  13176-3 0  9994
2 43188  97.5351 100.0034 0006794 284.3753  75.6726 15.16920829462853
S-NET C                 
1 43189U 18014K   26195.19580384  .00002608  00000+0  13587-3 0  9992
2 43189  97.5371 100.0994 0008148 274.5808  85.4494 15.16873730461407
SALSAT                  
1 46495U 20068K   26194.96022582  .00004471  00000+0  15597-3 0  9995
2 46495  97.8856 199.6626 0009069 197.5036 162.5892 15.30161661319452
OOV-CUBE (TUBSAT-30)    
1 60240U 24128F   26195.13595913  .00001043  00000+0  91808-4 0  9995
2 60240  61.9937 131.5963 0041269 139.7934 220.6223 15.02871344110166
LPNTSAT-001 (IOD-1)     
1 68408U 26065A   26195.15833441  .00001452  00000+0  73165-4 0  9994
2 68408  97.3983  75.0947 0014625 270.4951  89.4608 15.18665995 16350
CHUANG XIN 26 (CX-26)   
1 69972U 26158A   26194.51442212 -.00000212  00000+0 -21871-4 0  9997
2 69972  49.9860 287.5119 0004887 294.2352  65.8050 14.25122238   462
